STARLINK-6227
1 57060U 23088N   26092.83335647  .00833919  00000+0  30697-1 0  9995
2 57060  42.9992 334.6827 0001527 262.6927 340.8965 15.24844717  5763
